{"type": "FeatureCollection", "features": [{"type": "Feature", "properties": {"norad_id": 26766, "name": "INTELSAT 10 (IS-10)", "group": "intelsat", "lat": -5.260713068738943, "lon": -81.86841975800127, "alt_km": 36093.48076012218, "timestamp": "2025-12-21T05:44:51.243257+00:00", "meta": {"OBJECT_NAME": "INTELSAT 10 (IS-10)", "OBJECT_ID": "2001-019A", "EPOCH": "2025-12-20T17:29:18.796128", "MEAN_MOTION": 0.9907436, "ECCENTRICITY": 0.00077475, "INCLINATION": 8.6473, "RA_OF_ASC_NODE": 61.0766, "ARG_OF_PERICENTER": 228.8053, "MEAN_ANOMALY": 166.3968, "EPHEMERIS_TYPE": 0, "CLASSIFICATION_TYPE": "U", "NORAD_CAT_ID": 26766, "ELEMENT_SET_NO": 999, "REV_AT_EPOCH": 4381, "BSTAR": 0, "MEAN_MOTION_DOT": -1.02e-06, "MEAN_MOTION_DDOT": 0}, "tle": {"line1": "1 26766U 01019A   25354.72868977 -.00000102  00000+0  00000+0 0  9993", "line2": "2 26766   8.6473  61.0766 0007747 228.8053 166.3968  0.99074360 43819"}}, "geometry": {"type": "Point", "coordinates": [-81.86841975800127, -5.260713068738943]}}, {"type": "Feature", "properties": {"norad_id": 26900, "name": "INTELSAT 902 (IS-902)", "group": "intelsat", "lat": 4.494669726962428, "lon": 125.9549336659953, "alt_km": 35800.49041808163, "timestamp": "2025-12-21T05:44:51.243280+00:00", "meta": {"OBJECT_NAME": "INTELSAT 902 (IS-902)", "OBJECT_ID": "2001-039A", "EPOCH": "2025-12-15T13:09:02.081664", "MEAN_MOTION": 1.0027087, "ECCENTRICITY": 0.00045028, "INCLINATION": 5.6536, "RA_OF_ASC_NODE": 74.0372, "ARG_OF_PERICENTER": 189.6359, "MEAN_ANOMALY": 327.9329, "EPHEMERIS_TYPE": 0, "CLASSIFICATION_TYPE": "U", "NORAD_CAT_ID": 26900, "ELEMENT_SET_NO": 999, "REV_AT_EPOCH": 8885, "BSTAR": 0, "MEAN_MOTION_DOT": -2.65e-06, "MEAN_MOTION_DDOT": 0}, "tle": {"line1": "1 26900U 01039A   25349.54794076 -.00000265  00000+0  00000+0 0  9997", "line2": "2 26900   5.6536  74.0372 0004502 189.6359 327.9329  1.00270870 88858"}}, "geometry": {"type": "Point", "coordinates": [125.9549336659953, 4.494669726962428]}}, {"type": "Feature", "properties": {"norad_id": 27380, "name": "INTELSAT 904 (IS-904)", "group": "intelsat", "lat": 6.224014238889052, "lon": 144.66566874090486, "alt_km": 35793.16223424909, "timestamp": "2025-12-21T05:44:51.243301+00:00", "meta": {"OBJECT_NAME": "INTELSAT 904 (IS-904)", "OBJECT_ID": "2002-007A", "EPOCH": "2025-12-20T14:47:29.637600", "MEAN_MOTION": 1.00270901, "ECCENTRICITY": 0.00018083, "INCLINATION": 6.473, "RA_OF_ASC_NODE": 71.342, "ARG_OF_PERICENTER": 248.5545, "MEAN_ANOMALY": 319.9209, "EPHEMERIS_TYPE": 0, "CLASSIFICATION_TYPE": "U", "NORAD_CAT_ID": 27380, "ELEMENT_SET_NO": 999, "REV_AT_EPOCH": 4997, "BSTAR": 0, "MEAN_MOTION_DOT": -2.07e-06, "MEAN_MOTION_DDOT": 0}, "tle": {"line1": "1 27380U 02007A   25354.61631525 -.00000207  00000+0  00000+0 0  9995", "line2": "2 27380   6.4730  71.3420 0001808 248.5545 319.9209  1.00270901 49971"}}, "geometry": {"type": "Point", "coordinates": [144.66566874090486, 6.224014238889052]}}, {"type": "Feature", "properties": {"norad_id": 27426, "name": "DIRECTV 5 (TEMPO 1)", "group": "intelsat", "lat": -0.8501075384585347, "lon": 66.20116234640467, "alt_km": 35797.698084289106, "timestamp": "2025-12-21T05:44:51.243316+00:00", "meta": {"OBJECT_NAME": "DIRECTV 5 (TEMPO 1)", "OBJECT_ID": "2002-023A", "EPOCH": "2025-12-20T21:15:58.349664", "MEAN_MOTION": 1.00271691, "ECCENTRICITY": 0.00031112, "INCLINATION": 4.4215, "RA_OF_ASC_NODE": 77.5576, "ARG_OF_PERICENTER": 198.1661, "MEAN_ANOMALY": 22.8633, "EPHEMERIS_TYPE": 0, "CLASSIFICATION_TYPE": "U", "NORAD_CAT_ID": 27426, "ELEMENT_SET_NO": 999, "REV_AT_EPOCH": 8633, "BSTAR": 0, "MEAN_MOTION_DOT": -3.7e-07, "MEAN_MOTION_DDOT": 0}, "tle": {"line1": "1 27426U 02023A   25354.88609201 -.00000037  00000+0  00000+0 0  9990", "line2": "2 27426   4.4215  77.5576 0003111 198.1661  22.8633  1.00271691 86335"}}, "geometry": {"type": "Point", "coordinates": [66.20116234640467, -0.8501075384585347]}}, {"type": "Feature", "properties": {"norad_id": 27438, "name": "INTELSAT 905 (IS-905)", "group": "intelsat", "lat": -3.4064182943017003, "lon": 39.24902605489712, "alt_km": 35792.71131538538, "timestamp": "2025-12-21T05:44:51.243328+00:00", "meta": {"OBJECT_NAME": "INTELSAT 905 (IS-905)", "OBJECT_ID": "2002-027A", "EPOCH": "2025-12-20T10:52:51.499776", "MEAN_MOTION": 1.00272487, "ECCENTRICITY": 0.00026639, "INCLINATION": 6.3037, "RA_OF_ASC_NODE": 71.9674, "ARG_OF_PERICENTER": 202.299, "MEAN_ANOMALY": 201.0262, "EPHEMERIS_TYPE": 0, "CLASSIFICATION_TYPE": "U", "NORAD_CAT_ID": 27438, "ELEMENT_SET_NO": 999, "REV_AT_EPOCH": 4957, "BSTAR": 0, "MEAN_MOTION_DOT": 1.12e-06, "MEAN_MOTION_DDOT": 0}, "tle": {"line1": "1 27438U 02027A   25354.45337384  .00000112  00000+0  00000+0 0  9993", "line2": "2 27438   6.3037  71.9674 0002663 202.2990 201.0262  1.00272487 49579"}}, "geometry": {"type": "Point", "coordinates": [39.24902605489712, -3.4064182943017003]}}, {"type": "Feature", "properties": {"norad_id": 27445, "name": "GALAXY 3C (G-3C)", "group": "intelsat", "lat": 0.08198997486624097, "lon": 81.39626638894205, "alt_km": 35785.02287856656, "timestamp": "2025-12-21T05:44:51.243341+00:00", "meta": {"OBJECT_NAME": "GALAXY 3C (G-3C)", "OBJECT_ID": "2002-030A", "EPOCH": "2025-12-20T14:29:31.358688", "MEAN_MOTION": 1.00271785, "ECCENTRICITY": 0.00011359, "INCLINATION": 3.2823, "RA_OF_ASC_NODE": 80.4246, "ARG_OF_PERICENTER": 78.1134, "MEAN_ANOMALY": 53.4191, "EPHEMERIS_TYPE": 0, "CLASSIFICATION_TYPE": "U", "NORAD_CAT_ID": 27445, "ELEMENT_SET_NO": 999, "REV_AT_EPOCH": 4470, "BSTAR": 0, "MEAN_MOTION_DOT": -1.32e-06, "MEAN_MOTION_DDOT": 0}, "tle": {"line1": "1 27445U 02030A   25354.60383517 -.00000132  00000+0  00000+0 0  9994", "line2": "2 27445   3.2823  80.4246 0001135  78.1134  53.4191  1.00271785 44709"}}, "geometry": {"type": "Point", "coordinates": [81.39626638894205, 0.08198997486624097]}}, {"type": "Feature", "properties": {"norad_id": 27513, "name": "INTELSAT 906 (IS-906)", "group": "intelsat", "lat": 1.3422068516832557, "lon": -119.57090842789663, "alt_km": 35763.34454524593, "timestamp": "2025-12-21T05:44:51.243353+00:00", "meta": {"OBJECT_NAME": "INTELSAT 906 (IS-906)", "OBJECT_ID": "2002-041A", "EPOCH": "2025-12-20T20:07:29.951904", "MEAN_MOTION": 1.00272914, "ECCENTRICITY": 0.0006313, "INCLINATION": 5.3501, "RA_OF_ASC_NODE": 75.1356, "ARG_OF_PERICENTER": 199.098, "MEAN_ANOMALY": 181.4397, "EPHEMERIS_TYPE": 0, "CLASSIFICATION_TYPE": "U", "NORAD_CAT_ID": 27513, "ELEMENT_SET_NO": 999, "REV_AT_EPOCH": 8524, "BSTAR": 0, "MEAN_MOTION_DOT": 3.2e-07, "MEAN_MOTION_DDOT": 0}, "tle": {"line1": "1 27513U 02041A   25354.83854111  .00000032  00000+0  00000+0 0  9998", "line2": "2 27513   5.3501  75.1356 0006313 199.0980 181.4397  1.00272914 85248"}}, "geometry": {"type": "Point", "coordinates": [-119.57090842789663, 1.3422068516832557]}}, {"type": "Feature", "properties": {"norad_id": 27954, "name": "GALAXY 13 (HORIZONS-1)", "group": "intelsat", "lat": -0.8191238173658684, "lon": 26.27318172568565, "alt_km": 35791.966150652916, "timestamp": "2025-12-21T05:44:51.243370+00:00", "meta": {"OBJECT_NAME": "GALAXY 13 (HORIZONS-1)", "OBJECT_ID": "2003-044A", "EPOCH": "2025-12-20T17:39:11.610720", "MEAN_MOTION": 1.00269908, "ECCENTRICITY": 0.0002382, "INCLINATION": 0.9571, "RA_OF_ASC_NODE": 86.3686, "ARG_OF_PERICENTER": 178.091, "MEAN_ANOMALY": 299.8853, "EPHEMERIS_TYPE": 0, "CLASSIFICATION_TYPE": "U", "NORAD_CAT_ID": 27954, "ELEMENT_SET_NO": 999, "REV_AT_EPOCH": 4478, "BSTAR": 0, "MEAN_MOTION_DOT": 1.55e-06, "MEAN_MOTION_DDOT": 0}, "tle": {"line1": "1 27954U 03044A   25354.73555105  .00000155  00000+0  00000+0 0  9997", "line2": "2 27954   0.9571  86.3686 0002382 178.0910 299.8853  1.00269908 44781"}}, "geometry": {"type": "Point", "coordinates": [26.27318172568565, -0.8191238173658684]}}, {"type": "Feature", "properties": {"norad_id": 28358, "name": "INTELSAT 10-02", "group": "intelsat", "lat": 0.02084118889756535, "lon": 175.294748688572, "alt_km": 35789.366980731575, "timestamp": "2025-12-21T05:44:51.243393+00:00", "meta": {"OBJECT_NAME": "INTELSAT 10-02", "OBJECT_ID": "2004-022A", "EPOCH": "2025-12-20T21:47:10.361184", "MEAN_MOTION": 1.00271612, "ECCENTRICITY": 0.00010544, "INCLINATION": 0.0213, "RA_OF_ASC_NODE": 70.9299, "ARG_OF_PERICENTER": 241.65, "MEAN_ANOMALY": 102.9846, "EPHEMERIS_TYPE": 0, "CLASSIFICATION_TYPE": "U", "NORAD_CAT_ID": 28358, "ELEMENT_SET_NO": 999, "REV_AT_EPOCH": 7876, "BSTAR": 0, "MEAN_MOTION_DOT": 1.3e-07, "MEAN_MOTION_DDOT": 0}, "tle": {"line1": "1 28358U 04022A   25354.90775881  .00000013  00000+0  00000+0 0  9990", "line2": "2 28358   0.0213  70.9299 0001054 241.6500 102.9846  1.00271612 78766"}}, "geometry": {"type": "Point", "coordinates": [175.294748688572, 0.02084118889756535]}}, {"type": "Feature", "properties": {"norad_id": 28626, "name": "XM-3 (RHYTHM)", "group": "intelsat", "lat": 0.014570807775537308, "lon": -109.85206040479153, "alt_km": 36163.57648306094, "timestamp": "2025-12-21T05:44:51.243406+00:00", "meta": {"OBJECT_NAME": "XM-3 (RHYTHM)", "OBJECT_ID": "2005-008A", "EPOCH": "2025-12-20T22:08:53.280960", "MEAN_MOTION": 0.98949902, "ECCENTRICITY": 0.00019564, "INCLINATION": 0.1948, "RA_OF_ASC_NODE": 82.0001, "ARG_OF_PERICENTER": 277.9025, "MEAN_ANOMALY": 137.4781, "EPHEMERIS_TYPE": 0, "CLASSIFICATION_TYPE": "U", "NORAD_CAT_ID": 28626, "ELEMENT_SET_NO": 999, "REV_AT_EPOCH": 4083, "BSTAR": 0, "MEAN_MOTION_DOT": 8e-07, "MEAN_MOTION_DDOT": 0}, "tle": {"line1": "1 28626U 05008A   25354.92283890  .00000080  00000+0  00000+0 0  9993", "line2": "2 28626   0.1948  82.0001 0001956 277.9025 137.4781  0.98949902 40838"}}, "geometry": {"type": "Point", "coordinates": [-109.85206040479153, 0.014570807775537308]}}]}